     2.100          NAVIGATION                              RINEX VERSION / TYPE
fic2rin                                 05/09/2016 00:04:40 PGM / RUN BY / DATE
                                                            END OF HEADER
16 16  5  8 16  0  0.0 -.190138816833D-04  .261479726760D-11  .000000000000D+00
     .220000000000D+02 -.853125000000D+02  .422303304913D-08  .157168792562D+00
    -.445544719696D-05  .876709632576D-02  .191293656826D-05  .515375090599D+04
     .576000000000D+05  .577419996262D-07  .234678190850D+01  .111758708954D-06
     .990791057122D+00  .353843750000D+03  .375308643031D+00 -.836999150089D-08
    -.440375486264D-09  .100000000000D+01  .189600000000D+04  .000000000000D+00
     .240000000000D+01  .000000000000D+00 -.107102096081D-07  .220000000000D+02
     .504060000000D+05  .400000000000D+01
17 16  5  8 16  0  0.0 -.203615520149D-03 -.113686837722D-12  .000000000000D+00
     .130000000000D+02 -.831562500000D+02  .385873216025D-08 -.733083086436D+00
    -.437162816525D-05  .109554147348D-01  .114291906357D-04  .515369423485D+04
     .576000000000D+05 -.540167093277D-07 -.291504466391D+01  .175088644028D-06
     .976545607056D+00  .170812500000D+03 -.192861935078D+01 -.786925635754D-08
    -.107147320259D-11  .100000000000D+01  .189600000000D+04  .000000000000D+00
     .240000000000D+01  .000000000000D+00 -.107102096081D-07  .130000000000D+02
     .504060000000D+05  .400000000000D+01
18 16  5  8 16  0  0.0  .513332895935D-03  .420641299570D-11  .000000000000D+00
     .590000000000D+02 -.238125000000D+02  .587774483166D-08  .824217442182D+00
    -.130198895931D-05  .171360993991D-01  .582076609135D-05  .515367043877D+04
     .576000000000D+05 -.255182385445D-06 -.897844766153D+00 -.372529029846D-08
     .924817183651D+00  .249968750000D+03 -.188934963367D+01 -.896465912832D-08
    -.405731186047D-09  .100000000000D+01  .189600000000D+04  .000000000000D+00
     .240000000000D+01  .000000000000D+00 -.121071934700D-07  .590000000000D+02
     .504060000000D+05  .400000000000D+01
19 16  5  8 16  0  0.0 -.525706913322D-03  .000000000000D+00  .000000000000D+00
     .880000000000D+02 -.940000000000D+02  .376051378335D-08  .239971456510D+01
    -.520423054695D-05  .107939802110D-01  .120531767607D-04  .515362606430D+04
     .576000000000D+05 -.409781932831D-07 -.286624979940D+01 -.169500708580D-06
     .973629649983D+00  .155968750000D+03  .757642243549D+00 -.753388524513D-08
     .000000000000D+00  .100000000000D+01  .189600000000D+04  .000000000000D+00
     .240000000000D+01  .000000000000D+00 -.149011611938D-07  .880000000000D+02
     .504060000000D+05  .400000000000D+01
21 16  5  8 16  0  0.0 -.521949958056D-03 -.136424205266D-11  .000000000000D+00
     .810000000000D+02  .260312500000D+02  .519593071708D-08  .170171396582D+01
     .931322574615D-06  .233584837988D-01  .883266329765D-05  .515361424255D+04
     .576000000000D+05 -.689178705215D-07 -.194035865980D+01 -.556930899620D-06
     .935918255152D+00  .195875000000D+03 -.179366152701D+01 -.828248785601D-08
     .690028742467D-09  .100000000000D+01  .189600000000D+04  .000000000000D+00
     .240000000000D+01  .000000000000D+00 -.102445483208D-07  .810000000000D+02
     .504060000000D+05  .400000000000D+01
22 16  5  8 16  0  0.0  .346705317497D-03 -.795807864051D-11  .000000000000D+00
     .300000000000D+02 -.185937500000D+02  .583524306130D-08 -.113301070969D+01
    -.681728124619D-06  .767090253066D-02  .513717532158D-05  .515381832123D+04
     .576000000000D+05  .447034835815D-07 -.897157687659D+00  .171363353729D-06
     .922709196233D+00  .259093750000D+03 -.192837612895D+01 -.875536469608D-08
    -.171792870148D-09  .100000000000D+01  .189600000000D+04  .000000000000D+00
     .240000000000D+01  .000000000000D+00 -.176951289177D-07  .300000000000D+02
     .504060000000D+05  .400000000000D+01
23 16  5  8 16  0  0.0 -.172882340848D-03 -.170530256582D-11  .000000000000D+00
     .820000000000D+02  .375312500000D+02  .461019203300D-08 -.203484847563D+01
     .157207250595D-05  .108594512567D-01  .125169754028D-04  .515368895149D+04
     .576000000000D+05  .707805156708D-07  .179189936026D+00 -.115483999252D-06
     .946598240313D+00  .128468750000D+03 -.258484960417D+01 -.787139930395D-08
    -.183221917643D-09  .100000000000D+01  .189600000000D+04  .000000000000D+00
     .240000000000D+01  .000000000000D+00 -.200234353542D-07  .820000000000D+02
     .504060000000D+05  .400000000000D+01
24 16  5  8 16  0  0.0 -.167260877788D-04 -.568434188608D-12  .000000000000D+00
     .440000000000D+02  .136187500000D+03  .495734935064D-08 -.263171828248D+01
     .696070492268D-05  .439702579752D-02  .453926622868D-05  .515362425995D+04
     .576000000000D+05  .000000000000D+00  .120487872692D+01 -.800937414169D-07
     .949552465860D+00  .286937500000D+03  .418298373566D+00 -.841320758672D-08
     .340728478423D-09  .100000000000D+01  .189600000000D+04  .000000000000D+00
     .240000000000D+01  .000000000000D+00  .232830643654D-08  .440000000000D+02
     .504060000000D+05  .400000000000D+01
25 16  5  8 16  0  0.0 -.167628284544D-03 -.704858393874D-11  .000000000000D+00
     .100000000000D+03 -.855937500000D+02  .449268713845D-08  .165548337142D+01
    -.447966158390D-05  .558986549731D-02  .206753611565D-05  .515375774384D+04
     .576000000000D+05 -.210478901863D-06  .227730563945D+01  .689178705215D-07
     .978470286449D+00  .350812500000D+03  .760972813549D+00 -.841320758672D-08
    -.363586573412D-09  .100000000000D+01  .189600000000D+04  .000000000000D+00
     .240000000000D+01  .000000000000D+00  .558793544769D-08  .100000000000D+03
     .504060000000D+05  .400000000000D+01
27 16  5  8 16  0  0.0  .903466716409D-04  .397903932026D-11  .000000000000D+00
     .980000000000D+02 -.123812500000D+03  .384623163956D-08 -.711622291799D+00
    -.648759305477D-05  .363586773165D-02  .116638839245D-04  .515364802742D+04
     .576000000000D+05  .162050127983D-06 -.296480510115D+01 -.111758708954D-07
     .971501857580D+00  .162218750000D+03  .261038035979D+00 -.772960768347D-08
    -.138934358602D-09  .100000000000D+01  .189600000000D+04  .000000000000D+00
     .240000000000D+01  .000000000000D+00  .139698386192D-08  .980000000000D+02
     .504060000000D+05  .400000000000D+01
28 16  5  8 16  0  0.0  .521591864526D-03  .261479726760D-11  .000000000000D+00
     .910000000000D+02 -.847187500000D+02  .422374736460D-08  .501993726511D-01
    -.432692468166D-05  .197532617021D-01  .303424894810D-05  .515362824249D+04
     .576000000000D+05 -.227242708206D-06  .235175283830D+01 -.931322574615D-08
     .989494086618D+00  .338781250000D+03 -.161755490588D+01 -.855964225774D-08
    -.378587198248D-09  .100000000000D+01  .189600000000D+04  .000000000000D+00
     .240000000000D+01  .000000000000D+00 -.111758708954D-07  .910000000000D+02
     .504060000000D+05  .400000000000D+01
29 16  5  8 16  0  0.0  .657179392874D-03  .000000000000D+00  .000000000000D+00
     .370000000000D+02 -.953125000000D+02  .367908181995D-08  .163543684845D+01
    -.496581196785D-05  .101921532769D-02  .129044055939D-04  .515358537102D+04
     .576000000000D+05 -.465661287308D-07 -.290534767338D+01  .670552253723D-07
     .977509158049D+00  .137718750000D+03 -.300733172595D+00 -.756745807215D-08
     .392873507616D-11  .100000000000D+01  .189600000000D+04  .000000000000D+00
     .240000000000D+01  .000000000000D+00 -.102445483208D-07  .370000000000D+02
     .504060000000D+05  .400000000000D+01
30 16  5  8 16  0  0.0  .123533420265D-03  .318323145621D-11  .000000000000D+00
     .101000000000D+03  .121375000000D+03  .495984945478D-08  .287041907789D+01
     .640563666821D-05  .203300861176D-02  .390037894249D-05  .515361300087D+04
     .576000000000D+05 -.111758708954D-06  .129618010548D+01  .186264514923D-07
     .952194753385D+00  .301875000000D+03  .298990078640D+01 -.845178062202D-08
     .354300472323D-09  .100000000000D+01  .189600000000D+04  .000000000000D+00
     .240000000000D+01  .000000000000D+00  .325962901115D-08  .101000000000D+03
     .504060000000D+05  .400000000000D+01
31 16  5  8 16  0  0.0  .269993674010D-03 -.181898940355D-11  .000000000000D+00
     .103000000000D+03  .145625000000D+03  .458197657200D-08  .261475723806D+01
     .762380659580D-05  .817322486546D-02  .485777854919D-05  .515374443245D+04
     .576000000000D+05 -.279396772385D-07  .126102474160D+01  .182539224625D-06
     .971245557259D+00  .292500000000D+03 -.399959114028D+00 -.822319967213D-08
     .353586156854D-09  .100000000000D+01  .189600000000D+04  .000000000000D+00
     .240000000000D+01  .000000000000D+00 -.135041773319D-07  .103000000000D+03
     .504060000000D+05  .400000000000D+01
32 16  5  8 16  0  0.0 -.317720696330D-05 -.534328137292D-11  .000000000000D+00
     .790000000000D+02  .537812500000D+02  .433482341994D-08 -.332171140216D+00
     .276602804661D-05  .308168353513D-03  .127796083689D-04  .515360296440D+04
     .576000000000D+05 -.167638063431D-07  .175072648181D+00 -.596046447754D-07
     .960259610096D+00  .133906250000D+03 -.241373575714D+01 -.778996734055D-08
    -.350728894981D-09  .100000000000D+01  .189600000000D+04  .000000000000D+00
     .240000000000D+01  .000000000000D+00  .465661287308D-09  .790000000000D+02
     .504060000000D+05  .400000000000D+01
 6 16  5  8 15 59 44.0  .187257770449D-03  .557065504836D-11  .000000000000D+00
     .300000000000D+01  .327812500000D+02  .452768859640D-08 -.249779102743D+01
     .169873237610D-05  .440821633674D-03  .846572220325D-05  .515368338585D+04
     .575840000000D+05  .167638063431D-07 -.191576224508D+01 -.614672899246D-07
     .963770550580D+00  .219875000000D+03 -.143436280050D+01 -.800140471919D-08
     .586810157284D-09  .100000000000D+01  .189600000000D+04  .000000000000D+00
     .240000000000D+01  .000000000000D+00  .419095158577D-08  .300000000000D+01
     .534060000000D+05  .400000000000D+01
